{"type":"FeatureCollection","features":[{"type":"Feature","properties":{"name":"The Walled City (1704 footprint)","short":"Walled City","color":"#6B1F00","description":"Original 1704 enceinte, bounded by Meeting, Cumberland, East Bay, and Water Streets"},"geometry":{"type":"Polygon","coordinates":[[[-79.9311,32.7731],[-79.9271,32.7731],[-79.9264,32.78],[-79.9311,32.7794],[-79.9311,32.7731]]]}},{"type":"Feature","properties":{"name":"Cannonborough-Elliotborough","short":"CENA","color":"#5D6B4F","description":"Historic walkable neighborhood north of the walled city. Bounded by Septima Clark Parkway, Meeting, Bee/Morris/Mary, and President Streets."},"geometry":{"type":"Polygon","coordinates":[[[-79.9498,32.788],[-79.9382,32.788],[-79.9382,32.7945],[-79.9498,32.7945],[-79.9498,32.788]]]}},{"type":"Feature","properties":{"name":"Savannah Highway suburban corridor","short":"West Ashley","color":"#445B7A","description":"Representative suburban arterial commercial corridor (Hendrick Automotive row, hotels, strip retail) + adjacent residential in West Ashley, City of Charleston TD 63"},"geometry":{"type":"Polygon","coordinates":[[[-80.0155,32.787],[-80.0095,32.787],[-80.0095,32.7915],[-80.0155,32.7915],[-80.0155,32.787]]]}}]}