{"type":"FeatureCollection","features":[{"type":"Feature","properties":{"name":"Town of Chapin","short":"Chapin","color":"#6B1F00","description":"Incorporated Town of Chapin, SC \u2014 Census TIGER place 4513150. 2.011 sq mi. Lexington County Tax District 5AFD (combined millage 551.582)."},"geometry":{"type":"Polygon","coordinates":[[[-81.36214,34.16458],[-81.36023,34.16566],[-81.35951,34.16465],[-81.35925,34.16477],[-81.36033,34.16651],[-81.35952,34.16677],[-81.3601,34.16678],[-81.3602,34.1671],[-81.35964,34.1672],[-81.35935,34.16779],[-81.35938,34.16815],[-81.36019,34.1687],[-81.35976,34.1694],[-81.35999,34.16953],[-81.35947,34.1718],[-81.35556,34.17164],[-81.3553,34.17374],[-81.35329,34.17375],[-81.35323,34.17326],[-81.35173,34.17362],[-81.35166,34.17326],[-81.34994,34.17343],[-81.34808,34.17331],[-81.34584,34.17253],[-81.34482,34.17187],[-81.34422,34.17168],[-81.34288,34.17057],[-81.3424,34.16986],[-81.34048,34.16911],[-81.3401,34.16958],[-81.33942,34.16952],[-81.33889,34.16822],[-81.33612,34.16897],[-81.3367,34.17076],[-81.33762,34.17245],[-81.34034,34.17619],[-81.33902,34.17752],[-81.33488,34.17405],[-81.33553,34.17381],[-81.33219,34.17072],[-81.3306,34.17246],[-81.33196,34.1733],[-81.3308,34.17485],[-81.32928,34.17409],[-81.32798,34.1753],[-81.32716,34.17572],[-81.32609,34.17602],[-81.32639,34.17725],[-81.32492,34.17803],[-81.324,34.17698],[-81.32192,34.17771],[-81.32189,34.17739],[-81.3228,34.17719],[-81.32394,34.17653],[-81.3235,34.17596],[-81.32396,34.17529],[-81.32363,34.17366],[-81.32341,34.17317],[-81.32266,34.17276],[-81.32312,34.17193],[-81.32411,34.17233],[-81.3248,34.17238],[-81.32608,34.17224],[-81.32703,34.17192],[-81.32788,34.1721],[-81.32754,34.16992],[-81.32836,34.16935],[-81.32903,34.17007],[-81.32939,34.16929],[-81.3297,34.16955],[-81.33019,34.16907],[-81.32982,34.16831],[-81.33176,34.16673],[-81.33314,34.16532],[-81.33121,34.16399],[-81.33078,34.16334],[-81.33074,34.16239],[-81.3305,34.16194],[-81.33088,34.16155],[-81.33091,34.16094],[-81.33107,34.16068],[-81.3309,34.16037],[-81.33093,34.15972],[-81.32938,34.15796],[-81.3335,34.15454],[-81.33928,34.16052],[-81.33967,34.16038],[-81.33961,34.15905],[-81.34127,34.15821],[-81.34332,34.16067],[-81.34547,34.15933],[-81.34533,34.15899],[-81.34516,34.15878],[-81.3447,34.15898],[-81.3444,34.15867],[-81.34484,34.15838],[-81.34445,34.15788],[-81.34238,34.15903],[-81.34216,34.15875],[-81.34411,34.15653],[-81.34385,34.15629],[-81.34454,34.15581],[-81.34473,34.15597],[-81.34755,34.15406],[-81.34548,34.15162],[-81.34571,34.15138],[-81.34652,34.15185],[-81.34663,34.15173],[-81.34699,34.15223],[-81.34798,34.15146],[-81.34814,34.15182],[-81.34909,34.15115],[-81.34964,34.15223],[-81.34977,34.15329],[-81.34867,34.15343],[-81.34882,34.15388],[-81.34807,34.15419],[-81.34828,34.15463],[-81.34896,34.15432],[-81.34906,34.15461],[-81.3513,34.15433],[-81.3506,34.15288],[-81.35678,34.15165],[-81.35676,34.15553],[-81.35487,34.15594],[-81.35487,34.1585],[-81.35695,34.15756],[-81.3567,34.15842],[-81.35806,34.1587],[-81.35783,34.15924],[-81.35647,34.15895],[-81.35637,34.15929],[-81.35758,34.15981],[-81.3571,34.16088],[-81.35786,34.16195],[-81.35988,34.15977],[-81.36005,34.1598],[-81.36091,34.15925],[-81.36214,34.16458]]]}}]}