{"type": "FeatureCollection", "features": [{"type": "Feature", "properties": {"name": "Greater Chapin", "short": "Greater Chapin", "color": "#6B1F00", "description": "10-tract definition spanning Lexington and Newberry counties around the Town of Chapin (Census TIGER 2020).", "tracts": ["45071950603", "45063021206", "45063021204", "45063021208", "45063021207", "45063021205"]}, "geometry": {"type": "Polygon", "coordinates": [[[-81.29662200042004, 34.12336999990563], [-81.29434299969707, 34.1208320001493], [-81.29101600010911, 34.11715599997785], [-81.29037000002872, 34.11732000016845], [-81.28995599975195, 34.11752499977357], [-81.28992899998777, 34.11755399980822], [-81.28982199985765, 34.11755300026878], [-81.288312000137, 34.117529000163614], [-81.28737999982636, 34.115920000355274], [-81.28581999987699, 34.11322800010021], [-81.28381700023687, 34.10996400031851], [-81.28201500043816, 34.10702700033263], [-81.2798350003477, 34.10385500014782], [-81.27904399960406, 34.10270499963578], [-81.27759499998277, 34.10022800017033], [-81.2758450000626, 34.09738100007248], [-81.27283599959368, 34.09847000026661], [-81.27095000012939, 34.099044000252725], [-81.2726130000109, 34.09275800031237], [-81.2746680004279, 34.08873799989997], [-81.28057000011651, 34.08395199991449], [-81.28737599962838, 34.07961800028509], [-81.2923180003156, 34.076776999872266], [-81.29367300022554, 34.07599999999748], [-81.29849799983856, 34.07331799983911], [-81.3041329995635, 34.06983100003574], [-81.30466700038922, 34.06950100034072], [-81.30975300011815, 34.066039999830885], [-81.31400100014608, 34.06303200026928], [-81.31858899993266, 34.06344899979844], [-81.32220599994884, 34.063952000247745], [-81.32598299979857, 34.06438299982729], [-81.33089899964818, 34.06496100011289], [-81.3318629997459, 34.065149000329384], [-81.33529499981414, 34.06581800020256], [-81.33541299981492, 34.06583599993261], [-81.33560399961063, 34.06586599997034], [-81.33592500000098, 34.06591700015894], [-81.3450570000915, 34.067378000317895], [-81.34768400007071, 34.06787900026073], [-81.34985999996323, 34.068294000251555], [-81.35289500037145, 34.06823499977432], [-81.35713300035364, 34.06774900013245], [-81.36116100027355, 34.06703200005392], [-81.36836299962054, 34.06541000033426], [-81.37002200020241, 34.06537799982377], [-81.37177200012256, 34.06568000016051], [-81.37205099978182, 34.06575099976805], [-81.3748230004243, 34.06646200015544], [-81.37745799990113, 34.06738900028164], [-81.37772999988769, 34.06743300012221], [-81.38887600038731, 34.069265000059175], [-81.39188800033101, 34.07023300034934], [-81.39408299959176, 34.071545000184535], [-81.39401200034496, 34.07164600030964], [-81.39380300010761, 34.071948999962366], [-81.39373399961231, 34.07205099968268], [-81.39372799976452, 34.07205900029752], [-81.3937110000461, 34.07208399998173], [-81.39370600002322, 34.072092999925765], [-81.39331699986077, 34.07310100025684], [-81.39279200015424, 34.0740040001188], [-81.3924029999918, 34.07431800007466], [-81.39033599987924, 34.07516200023922], [-81.39013900023575, 34.075255000204066], [-81.3897629995938, 34.07543599964281], [-81.38948999978231, 34.07616899973791], [-81.3893059996593, 34.076513999865156], [-81.38895599985494, 34.077168999798666], [-81.3883330002391, 34.07828999969261], [-81.38823500032981, 34.079347000245605], [-81.38856400021778, 34.08022700019408], [-81.3896699997074, 34.08137499964221], [-81.38981399964743, 34.08144300033452], [-81.39111500002902, 34.08205499964446], [-81.39186200039173, 34.08262900008373], [-81.39221899986879, 34.082986000054944], [-81.39334600017311, 34.08411699967355], [-81.39438300006573, 34.085119000219876], [-81.39507199980382, 34.08536199966409], [-81.39579999989996, 34.08538799980519], [-81.39626199985732, 34.085488999791096], [-81.39644900035339, 34.08553100006653], [-81.39649899968379, 34.085541999904954], [-81.397013000418, 34.085978999972205], [-81.39739099981146, 34.08676199996592], [-81.39769100028542, 34.08735200031771], [-81.39823400043363, 34.08840999998277], [-81.39905799989093, 34.089040000278715], [-81.39930099956517, 34.089357999774215], [-81.39986299997997, 34.09009099988909], [-81.40001600014085, 34.0906559999577], [-81.4001049998293, 34.09098699966034], [-81.40033400015815, 34.09148500027847], [-81.40050200038766, 34.09185100018263], [-81.40090999991833, 34.092181999676335], [-81.4013369997156, 34.09216699985539], [-81.40174500014459, 34.0922319998042], [-81.40200700008542, 34.0923620002961], [-81.40208400007832, 34.09277300002859], [-81.40211300039063, 34.0931039996367], [-81.40229699961533, 34.09335500005888], [-81.40264599959478, 34.093452000170814], [-81.4031259999938, 34.09359000034557], [-81.40326699956081, 34.09363099975582], [-81.40367499998982, 34.09422000003201], [-81.40381100043226, 34.094633000034385], [-81.40391699983914, 34.09495500006293], [-81.40381899992985, 34.09551999965462], [-81.40340100035343, 34.0960919999772], [-81.40324499981949, 34.09634500004556], [-81.40282800006798, 34.097026999891206], [-81.40289599984006, 34.09748800003131], [-81.40325400004033, 34.09789999993723], [-81.40368400021065, 34.09803600001477], [-81.40375000033288, 34.09805699964632], [-81.40381599955681, 34.09807800001643], [-81.40402099959623, 34.09814299988939], [-81.40480999979174, 34.09826899967251], [-81.40559399996437, 34.09839500001194], [-81.4064059997261, 34.0983959997777], [-81.40722400023392, 34.09839800005318], [-81.40784500019994, 34.0983609997853], [-81.40828299986785, 34.09833499990914], [-81.40882600001606, 34.098528999765584], [-81.40899099987253, 34.098819999832344], [-81.4091160004443, 34.10007900022482], [-81.40922799969898, 34.100350999852736], [-81.40944600015719, 34.100878999960194], [-81.40965700004438, 34.101168999651634], [-81.40991099958927, 34.10151699975474], [-81.41038699979033, 34.10190400033049], [-81.4112499996057, 34.10238899988308], [-81.41212400019003, 34.10287500008796], [-81.41275699985162, 34.10352100032766], [-81.41302600036346, 34.10379599989912], [-81.41320999958815, 34.104248000111944], [-81.41317100012841, 34.104514999773], [-81.41293699977668, 34.10610399989542], [-81.41297600013472, 34.10636199963018], [-81.4133829998405, 34.10671800026152], [-81.41387800030815, 34.106799000064356], [-81.41435699998394, 34.106837000027745], [-81.41460600040429, 34.10685700004079], [-81.41479999967473, 34.10702700033263], [-81.41513000028594, 34.10739000024549], [-81.41516399972281, 34.10739999981531], [-81.41548000009028, 34.10748800029305], [-81.4159169999333, 34.10733500035879], [-81.41620800018643, 34.107100999967926], [-81.416508999587, 34.107069999997904], [-81.41661599971714, 34.107375999804425], [-81.41663800035674, 34.1075569997499], [-81.41670500030389, 34.10810099988929], [-81.41672799987012, 34.10828300016406], [-81.41685699974155, 34.10932200021764], [-81.41694700015324, 34.10952099983271], [-81.41697599956724, 34.109585000207446], [-81.41700499987955, 34.10964899978998], [-81.41708000022261, 34.109814000035996], [-81.41755600042369, 34.11000000034673], [-81.41828399962151, 34.109880000193066], [-81.41868600020274, 34.1097519998416], [-81.41926500033595, 34.10956700010693], [-81.41938699963639, 34.109504000096926], [-81.41972100044555, 34.1093340003198], [-81.42008999961817, 34.109414999849356], [-81.42051700031374, 34.109632999712915], [-81.42089600043043, 34.109697999635195], [-81.42132300022769, 34.10944900009706], [-81.42177000011644, 34.109514000160665], [-81.42215799955565, 34.110006999978566], [-81.42208700030885, 34.11054799962846], [-81.42199199987428, 34.111265999777764], [-81.4215840003436, 34.1121039999267], [-81.42086499956997, 34.113135999789705], [-81.4202329997333, 34.11403900031121], [-81.42038800044232, 34.11482200028071], [-81.42091200032395, 34.115493000284715], [-81.42233900020392, 34.11588200000967], [-81.42337600009657, 34.11632600020298], [-81.42367099964933, 34.116452999978605], [-81.42375600003814, 34.116489000220014], [-81.42454299968551, 34.1167809997935], [-81.42553299972246, 34.1168390003631], [-81.42621200031314, 34.11709000029204], [-81.42694999955671, 34.11736499963459], [-81.42714899974833, 34.11751199980614], [-81.42718200025861, 34.117535999916136], [-81.42761400007875, 34.11785499970851], [-81.42789000026328, 34.118058999970756], [-81.42859800026793, 34.118581999765816], [-81.42883400026948, 34.118755999880634], [-81.42899199955492, 34.11890700019023], [-81.42941000002966, 34.11930699974168], [-81.42944900038772, 34.119343999773825], [-81.4295680002134, 34.11945799981111], [-81.42960800039637, 34.1194960000373], [-81.42980500003986, 34.119684999910504], [-81.43012300005718, 34.11984699989054], [-81.43103799975108, 34.1203159996621], [-81.43113900003341, 34.120396999830184], [-81.43167100031097, 34.12082499992592], [-81.43171099959564, 34.12085799980511], [-81.43220299969022, 34.12125400032571], [-81.43253300030142, 34.121710999898504], [-81.4326510003022, 34.12195800005995], [-81.43274500001353, 34.122154999978626], [-81.43366100043066, 34.1251250001272], [-81.43369900006547, 34.125180000344145], [-81.43400399966401, 34.1257840001833], [-81.43409099970263, 34.125978000304464], [-81.43413900028153, 34.12608400035124], [-81.4343560000165, 34.12656599979976], [-81.43457199992656, 34.1270470000475], [-81.43503200023412, 34.12806899964718], [-81.43519299989259, 34.128357999665795], [-81.4353119997183, 34.12857300006535], [-81.43549300036655, 34.12889900016072], [-81.43564800017727, 34.12912000006234], [-81.43577299985073, 34.12930000017776], [-81.43584200034603, 34.129364999856705], [-81.43587099976003, 34.129392000006085], [-81.43608599984519, 34.129589999846644], [-81.43643099962667, 34.12976099994415], [-81.43677399975836, 34.129951000059854], [-81.43687800041373, 34.12995399972557], [-81.43717200014162, 34.129963000209344], [-81.43701899998072, 34.13017300031933], [-81.43656299987114, 34.130805000002525], [-81.43641200025841, 34.13101599963172], [-81.43421100025155, 34.134066999753614], [-81.43359899960805, 34.13491500002649], [-81.43313199962783, 34.13556399964853], [-81.43308899997011, 34.13562300004302], [-81.43296400029665, 34.1358000002357], [-81.43292300028875, 34.13585999978838], [-81.43260799974617, 34.136295000104575], [-81.4316660002881, 34.13760200035064], [-81.43148100034018, 34.137859999910255], [-81.43135699959332, 34.138042000082606], [-81.43121600002631, 34.13824599996514], [-81.43117900021639, 34.13830199986133], [-81.43100099994115, 34.13856200032709], [-81.43090399985678, 34.138703999911954], [-81.43082900041202, 34.138813999740535], [-81.43079599990173, 34.138860999725026], [-81.43065699998456, 34.13906599988954], [-81.43019900022517, 34.139736000041204], [-81.42882599987355, 34.14174899983864], [-81.42836899993907, 34.1424200002662], [-81.42823099984682, 34.14262200001511], [-81.42816200024981, 34.14271600018258], [-81.42752799986502, 34.14359699983296], [-81.42731699997782, 34.14389100014369], [-81.42275400030562, 34.150567000344864], [-81.42314400029295, 34.15119700013645], [-81.42322100028584, 34.15131800026178], [-81.42329300025587, 34.151442999742244], [-81.4235479996257, 34.151840000326864], [-81.42373199974871, 34.15211199999658], [-81.42393000011543, 34.15238000004977], [-81.42415199987327, 34.152638999698084], [-81.42438000037721, 34.15289499970088], [-81.42451000007355, 34.153020999684465], [-81.42476899964133, 34.15325199978568], [-81.42503700032825, 34.15348100028249], [-81.42531099996462, 34.15371699988836], [-81.42533299970594, 34.15373500025335], [-81.42574600015782, 34.15408099991521], [-81.42589099992277, 34.15420599976676], [-81.42613399959701, 34.154380999991545], [-81.42682300023341, 34.15496500024547], [-81.4269770002192, 34.15510400024935], [-81.42707799960323, 34.155184999787785], [-81.42712199998415, 34.15522000005073], [-81.4274209997349, 34.155475999663686], [-81.4275689998729, 34.15559499993976], [-81.42773399972934, 34.15571700028603], [-81.42789600011105, 34.15582499986059], [-81.42811200002112, 34.15595199976174], [-81.42841800034286, 34.156105000179174], [-81.42867899956046, 34.15620400008295], [-81.42883400026948, 34.1562510000567], [-81.42903599993585, 34.15630500026317], [-81.4292860001811, 34.15636100008283], [-81.42939099976309, 34.15637999970791], [-81.42950600028912, 34.15639999989549], [-81.43032600044677, 34.156525999853365], [-81.43045699996803, 34.156542999797885], [-81.43101799965959, 34.156620000159656], [-81.4313850000807, 34.156673000309944], [-81.43165200004441, 34.156698000271106], [-81.43168800002942, 34.15670099973072], [-81.43176599984723, 34.156706000316596], [-81.43180400038037, 34.15670399993358], [-81.43201199989451, 34.156699000090974], [-81.4321519996366, 34.156691999864826], [-81.43226899981246, 34.1566870000215], [-81.43362600027054, 34.15657699967664], [-81.43497699998252, 34.156467999754526], [-81.4355600003137, 34.15642499993748], [-81.43600899985228, 34.156395999858375], [-81.43618499957938, 34.156383999745835], [-81.43647900020555, 34.15637199963154], [-81.43673100010064, 34.1563730001987], [-81.43691699987349, 34.15638600013636], [-81.4371229997378, 34.1564079999692], [-81.43728500011952, 34.15643700004424], [-81.43768699980242, 34.15653200027144], [-81.43873700011385, 34.15678100014858], [-81.43901099975022, 34.15685100008031], [-81.43962099984559, 34.15699899978751], [-81.43986400041814, 34.15705499989032], [-81.44091499965617, 34.1573010002738], [-81.44125399958986, 34.15736400034741], [-81.4414660002003, 34.15739499971739], [-81.44183400044633, 34.157414999664574], [-81.44224199997703, 34.15739300009408], [-81.44245600023727, 34.157357999988456], [-81.44254400010081, 34.157345000200365], [-81.44257000004008, 34.157341000207964], [-81.44289300008026, 34.15727700030417], [-81.4433170004028, 34.15718699998573], [-81.44406200021737, 34.157026000027535], [-81.44458699992393, 34.156913999746294], [-81.44560000042542, 34.15670099973072], [-81.44599799991036, 34.156649000161835], [-81.44631099990481, 34.15662199980128], [-81.4465839997163, 34.15662199980128], [-81.4468809998172, 34.15664199993154], [-81.44707199961292, 34.156659999673025], [-81.44713899956005, 34.15666600008164], [-81.44727099980456, 34.15668399981801], [-81.44787000002925, 34.15676500007105], [-81.44807000004582, 34.15679300020469], [-81.45013700015836, 34.15707599973344], [-81.45031700008342, 34.157099999760185], [-81.45250700021964, 34.15739300009408], [-81.45283699993252, 34.15743600016153], [-81.4536739998086, 34.1575439997677], [-81.45387600037328, 34.15757700017733], [-81.45414800035985, 34.15763100027916], [-81.45522000041257, 34.15785799969637], [-81.45589599973187, 34.15800999982959], [-81.45610900016719, 34.158068000355975], [-81.45652300044398, 34.15820100015669], [-81.45695799973885, 34.15836299990486], [-81.45698600022625, 34.158373000136116], [-81.45782300010232, 34.1586960003521], [-81.45884400010144, 34.15908200035439], [-81.4591079996921, 34.1591760000454], [-81.459404999793, 34.159272999743415], [-81.4602989995705, 34.1595659999706], [-81.46059700039464, 34.159663999748695], [-81.46071899969506, 34.15970300026584], [-81.46097099959015, 34.15978399985298], [-81.46108799976601, 34.15981400003821], [-81.46114700021555, 34.15983000028136], [-81.46121300033779, 34.159848999869254], [-81.46134200020923, 34.1598869997755], [-81.46138599969183, 34.15990099969755], [-81.46190399972569, 34.16006900006754], [-81.46207699997805, 34.1601250003644], [-81.46264500024063, 34.16032499984706], [-81.46283699986124, 34.16040199973339], [-81.4630150001365, 34.16048300013658], [-81.46318199964274, 34.160566000010284], [-81.46342600004022, 34.16070700000275], [-81.4637830004156, 34.16094499976687], [-81.46407399977042, 34.16114999985983], [-81.46787499990961, 34.16383399980542], [-81.4680499998118, 34.16393400004442], [-81.46820700017064, 34.16401500003225], [-81.46839100029364, 34.16408900032947], [-81.46858100026445, 34.16414500018984], [-81.4688249997636, 34.164178999980734], [-81.46904900006959, 34.16419099972877], [-81.46959100039288, 34.164182999649206], [-81.46992799977848, 34.164167999962416], [-81.47198900004324, 34.16407999976442], [-81.47218599968673, 34.16407500035856], [-81.47235700028928, 34.164070999941714], [-81.47241099981764, 34.164073999882724], [-81.4725349996662, 34.16408100024019], [-81.47264500016936, 34.1640939997345], [-81.47276599964488, 34.16411899972835], [-81.47291299995798, 34.16415499973623], [-81.47307399961645, 34.1642069998857], [-81.47308600021034, 34.16421100029614], [-81.47328600022688, 34.16428600015157], [-81.47386299981196, 34.164544999704894], [-81.47559600001367, 34.16532500018341], [-81.476174000322, 34.165585999694834], [-81.47764300003477, 34.16625800000319], [-81.4809129997213, 34.1677550002983], [-81.48205099989627, 34.16827600015666], [-81.48255499968641, 34.16850700014763], [-81.48316200030705, 34.16878799970919], [-81.48352800000495, 34.168931999859886], [-81.48355800014218, 34.16901300025483], [-81.4836500002037, 34.16925899998662], [-81.48368100016583, 34.16934099973791], [-81.4836870000136, 34.16935800007523], [-81.48377099967921, 34.1696009998003], [-81.4839129999694, 34.16997700014337], [-81.48397999991656, 34.17011399989552], [-81.48404000019103, 34.17023600007352], [-81.48418999997885, 34.17050199977713], [-81.48427600019257, 34.17063099995182], [-81.48448100023198, 34.170900000338676], [-81.48459800040786, 34.17103299999215], [-81.48482299964043, 34.171269000336714], [-81.48494400001427, 34.171375000049956], [-81.4850810002816, 34.171488000116526], [-81.48521900037387, 34.17159499994144], [-81.48550499970581, 34.171798000160244], [-81.48565899969162, 34.17190399995228], [-81.48617900027361, 34.17226000029892], [-81.48634599977987, 34.172370999912], [-81.48636300039662, 34.17238200034778], [-81.48835000014323, 34.17374000023009], [-81.49248600001818, 34.17656699987772], [-81.49471999963701, 34.1780889997197], [-81.495492999939, 34.178597000209564], [-81.49573099959036, 34.17874599999698], [-81.49600099992712, 34.17890000027882], [-81.49657000001461, 34.179229000277125], [-81.49778900038042, 34.17991000008275], [-81.49273700008834, 34.18343100031389], [-81.49265300042276, 34.18348899972233], [-81.49051900036307, 34.18496699991681], [-81.48971300044911, 34.18552600003225], [-81.4878129998428, 34.18684999985432], [-81.48680400043759, 34.18754100031012], [-81.48609200023498, 34.18800200025781], [-81.48317499982753, 34.189291999792076], [-81.4799479997987, 34.19076699962931], [-81.47698600008374, 34.19207199990114], [-81.47584399971079, 34.192596000129626], [-81.47423799973068, 34.194477999788845], [-81.47243599993199, 34.19650100017183], [-81.4721339998082, 34.19684000001141], [-81.47064300035414, 34.19803199989337], [-81.46993799982421, 34.198539999905314], [-81.46389700021841, 34.20302300000505], [-81.46088699992455, 34.20530299968964], [-81.4606640003418, 34.20547300027812], [-81.45937399983086, 34.20641000030556], [-81.45711699974751, 34.20805200007431], [-81.4555040000947, 34.20922400011501], [-81.454215000307, 34.21016299990332], [-81.45409499975808, 34.21024899972486], [-81.453738000281, 34.2105099999245], [-81.45361899955702, 34.210597000059], [-81.4526169998245, 34.211321999915995], [-81.45260699977874, 34.21132999998311], [-81.44961400010163, 34.21349899972916], [-81.44861300019402, 34.21422499975779], [-81.44561299994591, 34.216431999710075], [-81.44302399960152, 34.221066999902085], [-81.44141599997158, 34.223134999776754], [-81.43970500040949, 34.2254310002094], [-81.43945299961611, 34.22562299991256], [-81.4365090003428, 34.229128000317296], [-81.43625099970161, 34.22971400025507], [-81.43549900021434, 34.229384999676654], [-81.43402899977835, 34.22874400011368], [-81.43063400041834, 34.22726300018312], [-81.42990799997203, 34.22694699989197], [-81.42908699998948, 34.22659400008269], [-81.42772399968361, 34.225993999882355], [-81.42717100038796, 34.2257599998935], [-81.42711399958824, 34.225736000086414], [-81.42662999988957, 34.2255310002177], [-81.4260830004417, 34.22531000014461], [-81.42552900042283, 34.22509800023197], [-81.42477200001437, 34.224825999632586], [-81.4246890001737, 34.22479600028281], [-81.42384800009967, 34.22450800033592], [-81.42344800006657, 34.22437699985372], [-81.42328300021013, 34.22432300013426], [-81.4215009996046, 34.22376100020157], [-81.41988299992893, 34.22325099963946], [-81.4194510001088, 34.22311300025859], [-81.4181840000624, 34.22270800026971], [-81.41811999958999, 34.22268800020149], [-81.41807199990942, 34.222753999814444], [-81.418015000008, 34.22283700007587], [-81.41793200016733, 34.22295499990407], [-81.41792499959632, 34.22296599968448], [-81.41787899956557, 34.22301700020075], [-81.41772700012791, 34.2231860001907], [-81.41759400005851, 34.2232799997659], [-81.41737599960031, 34.223174999696234], [-81.41723699968315, 34.223120000173424], [-81.41713100027626, 34.2230870001454], [-81.41712000040559, 34.223084999850684], [-81.41697200026759, 34.22306499987197], [-81.41663499998369, 34.223048999737], [-81.41620499981339, 34.22306499987197], [-81.41605900022351, 34.22306499987197], [-81.4158469996131, 34.22308199977992], [-81.41518499963921, 34.223289999730326], [-81.41469500009275, 34.22344999974263], [-81.41454299975679, 34.22349400008268], [-81.41448300038064, 34.22352099984105], [-81.41436399965664, 34.22357599984481], [-81.41394899955495, 34.22380099982373], [-81.4138680002624, 34.22384499998049], [-81.41368400013938, 34.22394000007165], [-81.41364300013151, 34.22396100035097], [-81.41344399993986, 34.22404899973151], [-81.41331800044149, 34.22411499976359], [-81.41320600028851, 34.22414200006568], [-81.41295199984529, 34.22419399963275], [-81.41278199996597, 34.22422999999991], [-81.41262999963, 34.22429599989018], [-81.41239199997862, 34.22441699992614], [-81.41223999964267, 34.224487999952245], [-81.41202100025787, 34.224604000180044], [-81.41184200015772, 34.22467500004852], [-81.41165100036201, 34.224769000190356], [-81.41145200017039, 34.224906000074824], [-81.41128599959072, 34.225059999988034], [-81.4110880001223, 34.22523600007452], [-81.41094500000717, 34.22534300004445], [-81.41086899983921, 34.22540100033232], [-81.41072999992203, 34.22549399991651], [-81.41059799967755, 34.2255550000832], [-81.41039900038423, 34.225604000282544], [-81.41023399962947, 34.22563000036151], [-81.41015400016184, 34.22564300002667], [-81.40990999976437, 34.22570300034056], [-81.40959799959484, 34.225808000229875], [-81.40930700024, 34.225912000245934], [-81.40914200038358, 34.22601099994193], [-81.40904199992613, 34.22609300022467], [-81.40896300028344, 34.226191999707915], [-81.40834700034029, 34.227209000085715], [-81.40824100003506, 34.22731400032581], [-81.4077640000091, 34.22775299986946], [-81.40749899969522, 34.22800600009821], [-81.40730799989952, 34.22816600006487], [-81.40723500010458, 34.22819900033124], [-81.40715499973864, 34.228221000006435], [-81.40706900042323, 34.228236999901675], [-81.40694300002653, 34.228252999793824], [-81.40678499984278, 34.22826400036784], [-81.40654600036649, 34.228291999796824], [-81.40618899999112, 34.228291999796824], [-81.40610899962518, 34.22828099996921], [-81.40558700029167, 34.22828099996921], [-81.40556200017731, 34.2282839998548], [-81.40550699992573, 34.228291999796824], [-81.405420999712, 34.228319000245406], [-81.40527500012213, 34.2283799998515], [-81.40518899990842, 34.228434999653324], [-81.40493100016556, 34.2286930000942], [-81.40421599958991, 34.22928100023557], [-81.40372600004343, 34.22972600033539], [-81.40361999973823, 34.22979800003873], [-81.40331599996463, 34.22994600026719], [-81.4032029999867, 34.229973000185424], [-81.40300399979508, 34.2300449996776], [-81.4028649998779, 34.23011100021024], [-81.40256100010428, 34.230275999829956], [-81.40239500042294, 34.23035299973997], [-81.4022099995767, 34.230423999961076], [-81.40180600024397, 34.23059999997918], [-81.40146899996009, 34.2307810002808], [-81.40116400036155, 34.23100099968464], [-81.40106499972903, 34.23111100028501], [-81.40097199984262, 34.23123200018542], [-81.40085300001694, 34.23139699983685], [-81.400772999651, 34.231495999769564], [-81.40067999976456, 34.23157300004942], [-81.40060799979454, 34.23161699985942], [-81.40038299966366, 34.23164399998467], [-81.40024999959425, 34.231621999718236], [-81.40013800033958, 34.23159500032865], [-81.39961500028285, 34.23141799974225], [-81.39932400002971, 34.231329999891294], [-81.3990129996851, 34.23124199994839], [-81.39886700009522, 34.23122000031965], [-81.39872099960704, 34.231193000058504], [-81.39854300023013, 34.23124199994839], [-81.39841699983343, 34.23129700010915], [-81.39828399976403, 34.23138000012175], [-81.39820500012132, 34.23146199963324], [-81.39813899999908, 34.23159399991097], [-81.39808600029562, 34.23173099983409], [-81.39797999999043, 34.23221000020405], [-81.39792700028697, 34.23228699983102], [-81.39781400030907, 34.2324300003307], [-81.39772100042264, 34.23251799977482], [-81.39764199988161, 34.23259999966355], [-81.39758199960717, 34.23268200021513], [-81.39752300005594, 34.23278700031574], [-81.39750899981222, 34.23287500012947], [-81.39752300005594, 34.232956999670556], [-81.39762199979015, 34.23321600002427], [-81.39774700036192, 34.2334959997113], [-81.39786000033982, 34.23385400002371], [-81.39789299995178, 34.23403999973039], [-81.39789299995178, 34.23422199970852], [-81.39785899961662, 34.23437599966836], [-81.39771399985165, 34.23478300001001], [-81.39763400038402, 34.23497499992982], [-81.39746899962925, 34.23525000006575], [-81.39723699982567, 34.235507999679086], [-81.39713100041878, 34.23563499993534], [-81.39703099996134, 34.23572800010089], [-81.39696499983911, 34.23577799994775], [-81.3968590004322, 34.23581599981154], [-81.39675999979968, 34.23588699988239], [-81.39669399967745, 34.23597500016958], [-81.3966540003928, 34.236040999767596], [-81.39663400030129, 34.236150999725304], [-81.39662699973032, 34.236365999632746], [-81.39666000024057, 34.2366849998137], [-81.39667299976105, 34.23692699975931], [-81.39666000024057, 34.23706900019533], [-81.3966400001491, 34.237185000175025], [-81.39659400011834, 34.237321999913235], [-81.39653399984388, 34.237393999805455], [-81.39646799972165, 34.23745999977643], [-81.3963949999267, 34.237508999732626], [-81.39628899962149, 34.237536999800895], [-81.3962099999788, 34.23758100020765], [-81.39614300003161, 34.23763000009341], [-81.39613700018384, 34.23771800004405], [-81.39614300003161, 34.237854999657564], [-81.39617599964359, 34.23792699983661], [-81.3963020000403, 34.23806399985263], [-81.39641500001821, 34.238146999878595], [-81.3965070000797, 34.23825100025193], [-81.39654700026267, 34.23834500009319], [-81.39655999978316, 34.23849300015196], [-81.39657300020195, 34.23856499978544], [-81.39662599990538, 34.238691000295454], [-81.39665900041567, 34.23881199970005], [-81.396640999974, 34.2390360002317], [-81.39663900032419, 34.23907600002518], [-81.39659300029342, 34.23919200021005], [-81.39652700017119, 34.239301999763974], [-81.39636099959152, 34.23960399967712], [-81.39626199985732, 34.2397740001205], [-81.39619499991018, 34.23996700011598], [-81.39614200020672, 34.24009300001286], [-81.39611600026744, 34.2402029998747], [-81.39612899978793, 34.24039500005879], [-81.39616200029819, 34.240533000083076], [-81.39622800042044, 34.24068100000835], [-81.39624099994093, 34.24078000016441], [-81.39622800042044, 34.24088999987115], [-81.39618200038969, 34.24097800012717], [-81.39610899969644, 34.241088000317816], [-81.39602900022882, 34.24117100033273], [-81.39597599962705, 34.241308000267864], [-81.3959560004339, 34.24149500014464], [-81.3959229999236, 34.241637999857495], [-81.39585699980137, 34.24178100006999], [-81.39578400000643, 34.2419570001123], [-81.39569100012002, 34.24211100003312], [-81.39557200029432, 34.242259000154476], [-81.39539300019418, 34.2424289996917], [-81.3952409998582, 34.242567000094496], [-81.3949360002597, 34.2427429999786], [-81.39449299967059, 34.2429409997796], [-81.39434000040802, 34.24301699970705], [-81.39418800007205, 34.24310000004776], [-81.39389699981892, 34.243236999813746], [-81.3937110000461, 34.24333599993402], [-81.39364200044912, 34.24336600010499], [-81.39345999997592, 34.243446000013634], [-81.39324800026381, 34.24356700000946], [-81.39308900025516, 34.24369299971589], [-81.39289699973622, 34.24381400009918], [-81.39269800044289, 34.243924000296715], [-81.39249900025128, 34.24401200035123], [-81.39222100041694, 34.24412200029001], [-81.39195600010306, 34.24421000013746], [-81.39167200042093, 34.244291999777545], [-81.39133400031213, 34.24439599998499], [-81.39113500012049, 34.24443999977701], [-81.3908110002554, 34.24447899970841], [-81.39057299970571, 34.24438000018991], [-81.39036099999359, 34.24430800033194], [-81.38993099982328, 34.24418699991621], [-81.38927499969716, 34.24402200008155], [-81.38897699977134, 34.24393899990748], [-81.38876599988416, 34.24389499985356], [-81.3883819997446, 34.24382399985302], [-81.3874679998756, 34.243641999839724], [-81.38719699971395, 34.24358100015114], [-81.38685299975737, 34.24352599984624], [-81.38647500036393, 34.24344900010154], [-81.38612399983631, 34.243393999710385], [-81.38595899997988, 34.243332999842075], [-81.38576099961317, 34.24324499982028], [-81.38562199969599, 34.24316799981852], [-81.38548899962659, 34.243085999826015], [-81.38517200033252, 34.24282200019511], [-81.38507199987507, 34.24272800015471], [-81.38486099998788, 34.24263500029585], [-81.38467500021503, 34.24261799987939], [-81.38454899981834, 34.24259100030288], [-81.38444400023637, 34.24255200023924], [-81.38436399987043, 34.242485999804785], [-81.3841789999225, 34.24224999976312], [-81.38411299980025, 34.24220000004697], [-81.38401999991383, 34.242188999808356], [-81.38392700002741, 34.242221999777215], [-81.38370899956921, 34.24246900010079], [-81.38365599986575, 34.242485999804785], [-81.3835100002759, 34.242485999804785], [-81.38336499961264, 34.24245799989739], [-81.38316600031932, 34.24237599995582], [-81.3830600000141, 34.242303999868795], [-81.38289500015766, 34.242205000019915], [-81.38256399972155, 34.241995999709005], [-81.38237899977362, 34.24189200024925], [-81.38221999976496, 34.24180900020258], [-81.38203399999213, 34.24173199962987], [-81.38192199983915, 34.24167100004231], [-81.38169000003553, 34.241483999813894], [-81.38149800041494, 34.241401999666124], [-81.38138600026193, 34.24138499974322], [-81.38134600007896, 34.24134700016525], [-81.38132000013968, 34.24128600029874], [-81.38129300037549, 34.2411490003278], [-81.38124700034474, 34.241093999918995], [-81.38105499982582, 34.241049999863144], [-81.38082999969492, 34.2410660002912], [-81.38056500027936, 34.2410660002912], [-81.38045899997415, 34.241039000216865], [-81.3801090001698, 34.240911999943776], [-81.38002200013115, 34.240901000279514], [-81.37949300022663, 34.240901000279514], [-81.37922100024008, 34.24084599970867], [-81.3790689999041, 34.24079099984452], [-81.37904100031503, 34.240778000289936], [-81.37894400023063, 34.240735999944384], [-81.37883799992542, 34.24066399993983], [-81.378745000039, 34.24058199973592], [-81.3786660003963, 34.24050500026863], [-81.37859299970303, 34.24046599998114], [-81.37849399996882, 34.240443999791964], [-81.37839400040973, 34.24043300006651], [-81.37810999982928, 34.240422000339606], [-81.37799100000359, 34.2404109998687], [-81.37781199990346, 34.24037799993251], [-81.37767899983406, 34.24033900032883], [-81.37756699968106, 34.240301000278684], [-81.37744799985539, 34.24029499987828], [-81.37730200026552, 34.24032799984702], [-81.377202999633, 34.24033900032883], [-81.37713700040908, 34.24033900032883], [-81.37703100010387, 34.24032799984702], [-81.37693099964643, 34.24030600036442], [-81.37679900030027, 34.24025100014744], [-81.37669299999507, 34.2402230002392], [-81.37659400026087, 34.2402230002392], [-81.37650100037443, 34.240244999743496], [-81.37640799958972, 34.24027299964442], [-81.37631600042653, 34.240277999731816], [-81.3760839997246, 34.240272000072494], [-81.37593800013475, 34.24025600023615], [-81.37578599979878, 34.24022800032956], [-81.37563400036113, 34.2402339999921], [-81.37541500007801, 34.240289000220166], [-81.37521699971128, 34.24038199970042], [-81.37521699971128, 34.24063999992465], [-81.37518999994711, 34.24074999981434], [-81.37515700033515, 34.24082699980018], [-81.37508399964192, 34.24093200013982], [-81.37496999983908, 34.241056999772276], [-81.3748850003486, 34.241151999754955], [-81.37481900022635, 34.24111900010929], [-81.37470500042353, 34.2411070001674], [-81.3746259998825, 34.2412059998224], [-81.3744209998431, 34.241443000121315], [-81.37426900040543, 34.24166799989103], [-81.37405699979502, 34.24193200017092], [-81.37390500035738, 34.242041999857534], [-81.37358099959394, 34.242311999963995], [-81.37346799961604, 34.242410999687046], [-81.37337800010268, 34.24250399979339], [-81.37317700026124, 34.242713000328145], [-81.37307099995601, 34.242801000163595], [-81.3728659999166, 34.24290000005406], [-81.37278700027389, 34.242955000025454], [-81.37265000000653, 34.24306799996186], [-81.37260800017374, 34.24310399968632], [-81.37253500037882, 34.243153000070365], [-81.37240300013433, 34.24318099974661], [-81.37221800018641, 34.24323600027695], [-81.372161000285, 34.243260999831094], [-81.3721050002085, 34.243286000120364], [-81.37200700029919, 34.24334899983618], [-81.37190000016909, 34.24340100016722], [-81.37181399995535, 34.24341799968298], [-81.37154899964149, 34.24342899976092], [-81.37135700002086, 34.243407000346146], [-81.37100600039159, 34.24335199992755], [-81.37090699975907, 34.24331399975233], [-81.37074100007773, 34.24317599983166], [-81.37067499995548, 34.243159999804675], [-81.37041700021263, 34.243159999804675], [-81.37029099981592, 34.243193000135406], [-81.37008599977652, 34.243265000204616], [-81.36994699985934, 34.24336900019581], [-81.3698809997371, 34.24345200018935], [-81.36986800021663, 34.243533999825296], [-81.36991400024738, 34.24360600034536], [-81.37008599977652, 34.24372599983766], [-81.37011900028679, 34.24377600013254], [-81.37013900037829, 34.24382500012538], [-81.37013900037829, 34.24390799966932], [-81.3701000000202, 34.24397900034155], [-81.36993400033884, 34.24411699968833], [-81.36977500033021, 34.24419900016158], [-81.36951699968903, 34.24452399972108], [-81.36937199992407, 34.24465600031254], [-81.36929199955811, 34.24471000035985], [-81.36912000002899, 34.24482699972464], [-81.36897500026403, 34.244931000013544], [-81.36886200028613, 34.24498100033521], [-81.36863700015525, 34.2450410002364], [-81.36822000040371, 34.24504700029846], [-81.36797500018133, 34.24501899975782], [-81.3677900002334, 34.2450249998214], [-81.36772400011118, 34.24503599968933], [-81.36767100040773, 34.245058000163525], [-81.36761100013327, 34.24511900026686], [-81.36757799962298, 34.24520699981451], [-81.36757199977521, 34.245536999712265], [-81.36755199968373, 34.24563499984678], [-81.36740000024606, 34.24577799995193], [-81.36728100042038, 34.245827999770405], [-81.36716800044248, 34.245833999776316], [-81.36706899980996, 34.24578399996147], [-81.36693599974056, 34.2457949997302], [-81.36687700018932, 34.245823000012685], [-81.36677099988414, 34.245916000061925], [-81.36661199987547, 34.24608099989648], [-81.36651999981396, 34.24613100027749], [-81.36644000034633, 34.24613100027749], [-81.36631399994964, 34.24612500029275], [-81.36623500030692, 34.24613600001696], [-81.36614200042051, 34.246207999796276], [-81.36608299997097, 34.2462899997175], [-81.366042999788, 34.2463729998009], [-81.366042999788, 34.24654299993987], [-81.36609600038976, 34.24671399997347], [-81.36619599994887, 34.24687899972865], [-81.36628200016258, 34.247033000297364], [-81.3663609998053, 34.24719200026098], [-81.36640099998826, 34.24744999966087], [-81.36640799966098, 34.247621000079256], [-81.36638799956947, 34.2476919998469], [-81.36632200034556, 34.24777999967453], [-81.36597099981796, 34.2480829998369], [-81.36595099972648, 34.24813800013412], [-81.36590499969573, 34.24837999982688], [-81.36586600023597, 34.248457000258284], [-81.36579900028883, 34.24848999999727], [-81.36572700031881, 34.24851699990905], [-81.36560699976991, 34.24861599975916], [-81.36555499989134, 34.24867099970808], [-81.36546200000494, 34.24870400010566], [-81.36518400017059, 34.24870999990658], [-81.36501799959092, 34.24867099970808], [-81.36466699996166, 34.248671999922834], [-81.36456800022745, 34.24869400018906], [-81.3644889996864, 34.248721000035445], [-81.3643959998, 34.24876499979402], [-81.36426399955552, 34.248847999664136], [-81.3641909997606, 34.248875000203675], [-81.36412499963834, 34.248875000203675], [-81.36389899968253, 34.24883099976006], [-81.36379999994833, 34.24882099985855], [-81.3635089996952, 34.24884300008583], [-81.36334300001384, 34.24889200009886], [-81.3631649997386, 34.248963999748064], [-81.36295999969919, 34.24907399989759], [-81.36278700034515, 34.249133999851075], [-81.36254200012277, 34.24916700006714], [-81.3621449995644, 34.24919499997024], [-81.36164900017017, 34.24918999966999], [-81.36153000034449, 34.24916800027599], [-81.36143699955976, 34.24912900028975], [-81.36139700027509, 34.24904700016447], [-81.36136399976483, 34.24893199966411], [-81.36134399967332, 34.24873900017571], [-81.36131100006136, 34.2486460002758], [-81.36129799964257, 34.24862900033085], [-81.36121800017496, 34.24855799986859], [-81.36114500038, 34.248529999753536], [-81.36095299986108, 34.24850800018694], [-81.36086300034772, 34.24853999968961], [-81.36080100042344, 34.248563000206396], [-81.36058299996523, 34.24863500013712], [-81.36040999971289, 34.24867400035231], [-81.36026499994792, 34.24866799980631], [-81.36006599975629, 34.24862999980354], [-81.35984099962539, 34.24855799986859], [-81.35970900027922, 34.24855300027305], [-81.3595030004149, 34.24855300027305], [-81.3593770000182, 34.2485199998162], [-81.35927200043622, 34.248471000329126], [-81.35920499959076, 34.24838800008718], [-81.35911900027534, 34.24829499979931], [-81.35900700012235, 34.24822300032032], [-81.35874199980849, 34.2482009999309], [-81.35851699967759, 34.248196000314145], [-81.35841100027068, 34.248240000347224], [-81.35831099981326, 34.24830099962934], [-81.35814599995682, 34.24845499982366], [-81.3579610000089, 34.24864699974828], [-81.35778899958144, 34.24876799969234], [-81.35764299999158, 34.248851000302054], [-81.35748399998292, 34.24890000031049], [-81.35729200036229, 34.24893899966031], [-81.35721700001922, 34.248987000149015], [-81.35706100038361, 34.249037000288624], [-81.35678900039706, 34.24914399971537], [-81.35674800038916, 34.2491570002055], [-81.35655800041837, 34.249232000252306], [-81.35639799968648, 34.24929600017999], [-81.35631599967073, 34.24931899974765], [-81.35619600002012, 34.24936199972957], [-81.35603299981351, 34.24941100018297], [-81.35590899996494, 34.24944199987924], [-81.35578299956825, 34.24946299973882], [-81.35561000021421, 34.24946699981756], [-81.3554829999926, 34.24948000025779], [-81.35527700012827, 34.24953899971735], [-81.35516199960223, 34.249589000271534], [-81.35505500037043, 34.24964799965468], [-81.35490700023243, 34.249721000344394], [-81.35456599975056, 34.24986700004884], [-81.35420300042571, 34.24998200001399], [-81.3541249997096, 34.25000999964599], [-81.35402799962522, 34.25008199982373], [-81.35391899984528, 34.25012800000811], [-81.35371800000382, 34.25021399986575], [-81.35359300033035, 34.2502420001631], [-81.35354999977433, 34.250246000204804], [-81.35350799994153, 34.250254999741045], [-81.35326400044238, 34.2502469996583], [-81.3532230004345, 34.25025899978214], [-81.35318200042661, 34.250254999741045], [-81.3531389998706, 34.250255999936975], [-81.3530960002129, 34.250265000214696], [-81.35301300037221, 34.250265000214696], [-81.3529709996411, 34.25026999970858], [-81.3527580001041, 34.250280999633524], [-81.35228399955285, 34.25028199982915], [-81.3521549996814, 34.25028899971305], [-81.35202599981, 34.25030300022165], [-81.3519839999772, 34.250311999751844], [-81.35190399961125, 34.25033899982161], [-81.3517940000064, 34.25039500032374], [-81.35169299972405, 34.25046300014087], [-81.35144300037712, 34.25065499993932], [-81.35141499988971, 34.250680999708145], [-81.35135200014052, 34.25072899994575], [-81.35129600006402, 34.25078100017226], [-81.35120099962947, 34.25085299969032], [-81.35103499994811, 34.25096499997319], [-81.35099800013819, 34.25098399982073], [-81.35088199978723, 34.25103099969879], [-81.35076100031173, 34.251066000286045], [-81.35067699974783, 34.251085000110834], [-81.35054899970132, 34.251102999745434], [-81.35041999982987, 34.251102999745434], [-81.3503379998141, 34.25107999992288], [-81.35030400037724, 34.251057000093994], [-81.35027699971474, 34.25103000025462], [-81.35025499997344, 34.25099999984535], [-81.35021300014066, 34.25089900019576], [-81.35019300004915, 34.250829999799386], [-81.3501760003307, 34.25069100013117], [-81.35018700020137, 34.250584999893356], [-81.35023400005704, 34.25048700032524], [-81.35032100009568, 34.25036400023599], [-81.35035999955542, 34.25031699998544], [-81.35036999960116, 34.25030600006514], [-81.3503999997384, 34.2502789999848], [-81.35043400007358, 34.25021399986575], [-81.35041599963192, 34.25018299971138], [-81.35036299992846, 34.25012600035574], [-81.35029099995846, 34.25003800001115], [-81.35019100039933, 34.24988099988511], [-81.3501460001935, 34.24982099972174], [-81.35007199967534, 34.249655000333874], [-81.35003099966745, 34.249519000081364], [-81.35002900001764, 34.249448999833014], [-81.3499999997053, 34.24928600033375], [-81.34998600035992, 34.24920700024416], [-81.34998600035992, 34.24917200036876], [-81.34997299994113, 34.24906800012266], [-81.34993000028344, 34.248894999992714], [-81.34989099992536, 34.24879299983095], [-81.34979100036625, 34.24859700011945], [-81.34967199964225, 34.24840999968509], [-81.34951900037969, 34.24819900023276], [-81.34946800032607, 34.24810299981411], [-81.34942599959496, 34.247965000319965], [-81.34942099957208, 34.247929999928], [-81.34941999974717, 34.24785999984297], [-81.34942599959496, 34.247823999925096], [-81.3494430002117, 34.24779200015016], [-81.3494859998694, 34.24773099975653], [-81.34960100039545, 34.247625999730154], [-81.34966499996956, 34.24753400031364], [-81.34966300031972, 34.24746399989924], [-81.3496540000989, 34.247429000041485], [-81.3496270003347, 34.2474010002933], [-81.3495910003497, 34.24738199963672], [-81.34952500022747, 34.24733600017899], [-81.3494499998844, 34.247301000268], [-81.34927199960916, 34.247199999891585], [-81.34917100022514, 34.24713400013157], [-81.34907400014076, 34.24706400012704], [-81.34904599965336, 34.247037999983206], [-81.34893900042154, 34.246976999785616], [-81.3489009998884, 34.246960000246105], [-81.34883399994125, 34.24695000012228], [-81.34870599989472, 34.24695199985011], [-81.34866400006193, 34.24696399970129], [-81.34862999972674, 34.24698500017924], [-81.34859000044209, 34.246998000260376], [-81.34847699956586, 34.24704900033062], [-81.34843700028122, 34.247061999659294], [-81.3484010002962, 34.24708099964554], [-81.34828599977016, 34.24712800021834], [-81.34824599958719, 34.247140000044375], [-81.34817199996735, 34.24717300029978], [-81.34812900030964, 34.247179999699775], [-81.3480559996164, 34.247211000217874], [-81.34797600014876, 34.24723700030825], [-81.34789499995792, 34.24725699974394], [-81.34785599959984, 34.24727299973466], [-81.3477600002387, 34.247343000307936], [-81.34767499984987, 34.24742099969007], [-81.34765700030654, 34.2474520001194], [-81.34761200010071, 34.24751100025814], [-81.34759500038226, 34.24754300013992], [-81.34755000017641, 34.2476029996998], [-81.34753900030576, 34.247637000000715], [-81.34749400009993, 34.24769600000982], [-81.34748099968114, 34.24773000027316], [-81.34742799997767, 34.24778600028386], [-81.34736799970322, 34.24783699987663], [-81.34733199971822, 34.2478569999123], [-81.34729400008337, 34.24787200030722], [-81.34726300012123, 34.24789500026405], [-81.34722399976317, 34.247912000357275], [-81.34718199993037, 34.24791999991944], [-81.34714500012046, 34.24793599978412], [-81.34697799971589, 34.247972999877156], [-81.3469359998831, 34.24797599980369], [-81.3468940000503, 34.24797199965408], [-81.34684999966936, 34.247977000026715], [-81.34672300034606, 34.24796400009681], [-81.34663999960709, 34.24794800023751], [-81.34659799977429, 34.24794599979077], [-81.34655699976639, 34.2479340000796], [-81.34646999972777, 34.24793299985609], [-81.34642899971989, 34.247922000366785], [-81.34638699988709, 34.247922000366785], [-81.34630099967336, 34.247912000357275], [-81.3461769998248, 34.24788200032153], [-81.3460639998469, 34.24782999978871], [-81.34599400042502, 34.24778999969973], [-81.34595599989187, 34.24777300032444], [-81.34592300027991, 34.247750000334314], [-81.345810000302, 34.247697000236165], [-81.34569200030123, 34.247652999919204], [-81.34564999957011, 34.247641999650725], [-81.3456069999124, 34.24763999993924], [-81.34547700021606, 34.24764700004297], [-81.34539299965216, 34.247658999795], [-81.34535400019243, 34.24767400022522], [-81.34531200035963, 34.24767799964647], [-81.34523100016877, 34.24769499978346], [-81.34518900033598, 34.24769600000982], [-81.34515099980283, 34.247710999690916], [-81.34506600031234, 34.24771900001476], [-81.34502699995429, 34.24773300020837], [-81.34494099974056, 34.24773799985268], [-81.34489999973268, 34.24774399972243], [-81.34485600025005, 34.24774200001341], [-81.34477099986124, 34.247747999882876], [-81.34472700037863, 34.247744999948196], [-81.34459699978397, 34.24774699965713], [-81.34446899973746, 34.24773499991759], [-81.34438500007187, 34.24772300017639], [-81.34434099969093, 34.247720999724315], [-81.34425600020043, 34.24770700027122], [-81.34421299964443, 34.24770600004501], [-81.34404100011528, 34.24769000013665], [-81.34399699973433, 34.24769300007329], [-81.34395400007664, 34.24769000013665], [-81.34382299965706, 34.24769000013665], [-81.343606999747, 34.24769799971992], [-81.34351999970838, 34.24769499978346], [-81.34343400039296, 34.24768300003655], [-81.343318000042, 34.24763800022777], [-81.34328299988191, 34.24761599968548], [-81.34322299960745, 34.24756699967199], [-81.34315499983538, 34.24747599967736], [-81.34314200031491, 34.24744200005397], [-81.34313100044425, 34.247420000202965], [-81.34310899980463, 34.24737800020146], [-81.34310200013194, 34.247343000307936], [-81.34306799979674, 34.24727800014883], [-81.34306000029915, 34.24724399970287], [-81.34303900038275, 34.24721299993951], [-81.34301799956803, 34.24714599995681], [-81.34299900019977, 34.24711399992408], [-81.34298800032911, 34.2470800001544], [-81.34295099962088, 34.24701700026102], [-81.34293899992531, 34.246982999709616], [-81.34288500039698, 34.246888000367534], [-81.34282099992454, 34.24679499990721], [-81.34279499998527, 34.24676599971071], [-81.34273200023608, 34.24667400009664], [-81.34258400009809, 34.24649700002355], [-81.34248500036388, 34.246341000216844], [-81.34246100007444, 34.246311000363676], [-81.34242500008942, 34.246246999651085], [-81.34240099979998, 34.246216999764414], [-81.34236599963988, 34.24615299972286], [-81.34234200024873, 34.24612299980267], [-81.34232499963198, 34.24609100012356], [-81.3422829997992, 34.24602899973602], [-81.34225100001214, 34.24596299980022], [-81.3422269997227, 34.245932999812325], [-81.34219999995852, 34.2458669998013], [-81.3421770003923, 34.24583699977918], [-81.34216499979843, 34.245803999742435], [-81.34212899981341, 34.24574000012946], [-81.34211600029293, 34.24570700005475], [-81.34209500037653, 34.24567599972524], [-81.34206799971405, 34.245610000255226], [-81.34204699979765, 34.245578999889986], [-81.3420019995918, 34.24548000018017], [-81.34198999989623, 34.24544599975044], [-81.34198499987335, 34.24541900033847], [-81.3419799998505, 34.24539800021236], [-81.34196200030713, 34.24534300035214], [-81.34192899979686, 34.245203000275886], [-81.34190299985761, 34.24499099995039], [-81.34190000038288, 34.244920999648635], [-81.34187299972037, 34.244744999863165], [-81.34184699978111, 34.24467699988124], [-81.3418049999483, 34.2446160002002], [-81.34177999983396, 34.24458699999547], [-81.3417480000469, 34.2445639998772], [-81.34171000041208, 34.24454699985029], [-81.3416789995516, 34.244523000199635], [-81.34160999995464, 34.24447999997298], [-81.3415160002433, 34.24440899972337], [-81.34149600015184, 34.24437700013519], [-81.34146900038765, 34.24434900011424], [-81.34141699961079, 34.24425299975945], [-81.34140499991523, 34.244219000319234], [-81.34136999975513, 34.24415500024358], [-81.34135800005956, 34.244121000021174], [-81.34131799987658, 34.24405800014059], [-81.34130500035612, 34.24402500014893], [-81.34128400043973, 34.243993999942504], [-81.34124500008166, 34.24391800015465], [-81.34120499989868, 34.24385599965151], [-81.3411920003782, 34.243822000050876], [-81.34115200019525, 34.24376000021967], [-81.34113799995153, 34.24372599983766], [-81.34108000022522, 34.243630999789616], [-81.34103300036955, 34.24357199990119], [-81.34101499992789, 34.2435399999948], [-81.34098700033879, 34.24351299997143], [-81.34094100030804, 34.243447000290494], [-81.34082400013219, 34.24334899983618], [-81.34075100033725, 34.24331000012374], [-81.34071799982695, 34.24328799993524], [-81.34064400020713, 34.243249999731134], [-81.34057700025998, 34.24320600005965], [-81.3403460002813, 34.24310900034817], [-81.34026300044061, 34.24309000020786], [-81.34022300025764, 34.243075999984505], [-81.34014000041697, 34.243056000297855], [-81.340100000234, 34.243042000068804], [-81.34003300028685, 34.24303700014558], [-81.3399029996922, 34.24304099978713], [-81.33973299981288, 34.24306999978197], [-81.3395660003066, 34.24310699978642], [-81.33944400010789, 34.243140000138], [-81.33927800042652, 34.24317899992919], [-81.33919800006058, 34.243202999963074], [-81.3390299998311, 34.243239999909115], [-81.33877399973805, 34.24327999993275], [-81.33864499986662, 34.243291000028805], [-81.33860200020892, 34.24328999975008], [-81.33847499998731, 34.2432639999256], [-81.33830599993291, 34.243153000070365], [-81.33822100044242, 34.243072000344604], [-81.33819799997787, 34.243042000068804], [-81.33814199990137, 34.242987999694], [-81.33804099961904, 34.24292100006088], [-81.33789400020424, 34.242843999762776], [-81.33754900042277, 34.24269799975635], [-81.3374749999046, 34.24266100031468], [-81.33730000000241, 34.242555000359026], [-81.33665800012, 34.2421279998094], [-81.33642799996623, 34.24196399994607], [-81.33628800022416, 34.24188099997039], [-81.33613800043632, 34.241811000052614], [-81.33609900007826, 34.2417970003591], [-81.33565600038749, 34.24157700020181], [-81.33542399968557, 34.241483000256345], [-81.3352649996769, 34.241424999905824], [-81.33518400038437, 34.24140100010761], [-81.33509899999557, 34.24138600004457], [-81.3349269995681, 34.24137099997886], [-81.33464299988599, 34.241372999839236], [-81.33453499993094, 34.24137499969964], [-81.33414900014155, 34.241416000167966], [-81.33368100033641, 34.241478999798126], [-81.33320699978518, 34.241522999629794], [-81.33303799973078, 34.24155400000367], [-81.33285299978286, 34.24160499965969], [-81.33277199959201, 34.24163099999662], [-81.33263000020008, 34.241712999921354], [-81.33259900023796, 34.24173799992778], [-81.3325740001236, 34.241766999628865], [-81.33255800023007, 34.24179999976316], [-81.33254300016146, 34.24186999969014], [-81.33254099961331, 34.24194200014834], [-81.33252899991774, 34.24203399973661], [-81.33252800009285, 34.24204399970198], [-81.33252700026793, 34.242112999875914], [-81.33251200019932, 34.24218199999336], [-81.33248200006209, 34.242249000214656], [-81.33245399957468, 34.24227599990087], [-81.33243900040438, 34.242285999837414], [-81.33242099996272, 34.24229899990174], [-81.33238099977974, 34.24231300025433], [-81.33235300019065, 34.24231699993034], [-81.33229600028926, 34.24232600031448], [-81.33212899988467, 34.24235799993985], [-81.33208500040205, 34.242359000229634], [-81.33200300038628, 34.24237499966625], [-81.33191799999749, 34.24238400004419], [-81.33166799975221, 34.24242999998062], [-81.33158400008664, 34.24244199973393], [-81.33134800008507, 34.24251100032424], [-81.33123099990921, 34.24255099995175], [-81.33107799974835, 34.24261799987939], [-81.3309699997933, 34.242676999693906], [-81.33089399962533, 34.24271200004258], [-81.3307730001498, 34.242752999859675], [-81.33073499961667, 34.242770000248925], [-81.33059499987458, 34.24285499991574], [-81.33053200012539, 34.24290300016144], [-81.33050399963798, 34.24292999963787], [-81.33043900023898, 34.24297700030099], [-81.33032700008597, 34.24303099994028], [-81.3302430004204, 34.243048999812345], [-81.33011399965065, 34.243058999657066], [-81.3299839999543, 34.243050000093916], [-81.3298579995576, 34.243021999631466], [-81.3297789999149, 34.2429959997242], [-81.32961499988336, 34.242953000202654], [-81.32957200022565, 34.24294599970857], [-81.32944300035423, 34.242935000310055], [-81.32931299975957, 34.2429489998143], [-81.32927099992676, 34.242958999670904], [-81.32919399993388, 34.24299300036275], [-81.32912100013895, 34.24303099994028], [-81.32902400005456, 34.24310100032872], [-81.32893299981797, 34.243177000111714], [-81.328900000206, 34.243243000004355], [-81.32887300044183, 34.24331000012374], [-81.32886000002304, 34.24338000028016], [-81.32885900019814, 34.24348700021582], [-81.3288709998937, 34.24362899998287], [-81.32887500009166, 34.24373500007113], [-81.32888400031248, 34.24380600014674], [-81.32888799961214, 34.24423099981743], [-81.32887300044183, 34.244442000307025], [-81.3288630003961, 34.24472600009214], [-81.328864000221, 34.2448329998019], [-81.32887599991658, 34.245046000040624], [-81.32891199990156, 34.245399999977074], [-81.32893399964289, 34.245539999725644], [-81.3289560002825, 34.24564399987612], [-81.32896799997808, 34.24567800022588], [-81.32898899989446, 34.2457829997124], [-81.32903099972728, 34.24610000010414], [-81.32907400028328, 34.24652500007249], [-81.32913200000961, 34.24741499979725], [-81.32916399979665, 34.247697000236165], [-81.32916899981952, 34.247733999691704], [-81.32918200023832, 34.24780399988158], [-81.3292020003298, 34.2480170000268], [-81.32920499980453, 34.24808800020293], [-81.32919499975878, 34.24833700008574], [-81.32917499966732, 34.24854900015087], [-81.32914000040553, 34.24868799964449], [-81.32908799962865, 34.248861000200044], [-81.3290330002754, 34.24899500035155], [-81.32896200013029, 34.24912500019489], [-81.32890299968075, 34.24921899977377], [-81.32881399999229, 34.249340999844726], [-81.32874000037243, 34.249429000175645], [-81.3286320004174, 34.24954100012621], [-81.32859200023444, 34.249568999904945], [-81.32856399974703, 34.2495850001986], [-81.32850199982275, 34.2496360001862], [-81.32839999971549, 34.24970299967162], [-81.3281749995846, 34.24981399979885], [-81.32811400038355, 34.24973500020494], [-81.32804499988826, 34.249604000357735], [-81.32802099959882, 34.249534999642044], [-81.32796200004758, 34.24932599971165], [-81.3275550003418, 34.2482690000358], [-81.32749400024244, 34.24809800019153], [-81.327433999968, 34.24792500029515], [-81.32716700000428, 34.24702199994786], [-81.32710099988205, 34.24677700009367], [-81.32703599958474, 34.246569000236626], [-81.32682399987263, 34.24598600027878], [-81.3267529997275, 34.245817000005985], [-81.32662700022914, 34.24555000001706], [-81.32645700034982, 34.245474999659194], [-81.3263860002047, 34.245433000172156], [-81.32628900012033, 34.24536099972979], [-81.326231000394, 34.24530700010018], [-81.32596000023234, 34.245026000079484], [-81.32569999994135, 34.244784999914245], [-81.32545899991692, 34.24457799985304], [-81.324873000111, 34.24414900011797], [-81.32481399966147, 34.24409599997992], [-81.3247380003918, 34.24400900028339], [-81.3241969998934, 34.24388000023495], [-81.32381399957875, 34.243804000344106], [-81.32372800026334, 34.24379099976968], [-81.32342399959141, 34.24376200002329], [-81.32316599984856, 34.243724000033176], [-81.32295400013645, 34.243678000061294], [-81.3229070002808, 34.243665999741594], [-81.32262000022561, 34.24359500029055], [-81.32220799959866, 34.24347300005845], [-81.32195900007662, 34.243406000068816], [-81.32174700036451, 34.243361999736265], [-81.32166100015078, 34.243350999649564], [-81.32157300028723, 34.243345999744704], [-81.32139800038506, 34.24334899983618], [-81.32113700026915, 34.24337299982158], [-81.3209649998417, 34.24339800007759], [-81.32099800035196, 34.24353899971905], [-81.32104600003257, 34.243676000255675], [-81.3210719999718, 34.24373099971995], [-81.32034700024873, 34.2430669996805], [-81.32015800010284, 34.242917999954145], [-81.31956200025118, 34.24248399997085], [-81.31930100013527, 34.242293999934326], [-81.3185570001456, 34.24157000033592], [-81.31845300038852, 34.241411999706564], [-81.31843999996974, 34.241392000367135], [-81.31798300003523, 34.24072399994793], [-81.31778499966853, 34.24043199975384], [-81.31758600037521, 34.240209999854265], [-81.31691099998251, 34.2394579999921], [-81.31700700024199, 34.23935899976661], [-81.31729500012206, 34.23906399979205], [-81.31739200020645, 34.238966000175964], [-81.31743099966619, 34.238926000330224], [-81.3180369995636, 34.23831799988879], [-81.31997399997981, 34.2363760002714], [-81.32054600044036, 34.2358039998564], [-81.32062099988511, 34.23572899972678], [-81.32158599980772, 34.23476099982103], [-81.32169899978562, 34.23464399983353], [-81.32170899983137, 34.23463500011338], [-81.32192800011448, 34.23440899972917], [-81.32237900020118, 34.233942999854754], [-81.32242799970668, 34.23389299966083], [-81.32477500020171, 34.23147400020718], [-81.32501500040124, 34.231225000202045], [-81.32573699975129, 34.23048100003249], [-81.3259779997757, 34.23023299975314], [-81.32879300007589, 34.22733499976398], [-81.32912100013895, 34.22688800019511], [-81.33226199995406, 34.22261899970678], [-81.33608300018474, 34.21742200033901], [-81.33728800030686, 34.215782999984484], [-81.34001099964722, 34.212081999930064], [-81.34002999991378, 34.21205600012689], [-81.34028099998396, 34.21172200011311], [-81.3410929997457, 34.21064500012041], [-81.34136399990733, 34.210286000035715], [-81.34264000017457, 34.20859500029574], [-81.34337599976831, 34.20761800018523], [-81.34532800025315, 34.2050299998277], [-81.3451619996735, 34.20490100024665], [-81.34494199956546, 34.20475299985058], [-81.34466600027926, 34.20450300035835], [-81.34438000004899, 34.20398599984983], [-81.34397199961998, 34.203570999972605], [-81.34363199986136, 34.2029989996647], [-81.34342299962398, 34.20270300010644], [-81.3431909998204, 34.202490999773936], [-81.3429370002755, 34.20224100025985], [-81.34267299978654, 34.202029000251514], [-81.34238999992931, 34.201823999908115], [-81.34235300011939, 34.2017969998837], [-81.34203199972903, 34.20162099987049], [-81.34177800018412, 34.20152799993891], [-81.34154600038055, 34.201434999904684], [-81.34131399967863, 34.20115800000183], [-81.3410939995706, 34.20083500033362], [-81.34085199972125, 34.20066800017629], [-81.34061999991768, 34.20036400024184], [-81.34061400006989, 34.20034800025404], [-81.34044500001549, 34.19990300025869], [-81.34033600023555, 34.19953399993214], [-81.34006000005103, 34.19932199980332], [-81.3398740002782, 34.19901700015481], [-81.33987500010309, 34.19874099980207], [-81.33973199998796, 34.19846399996368], [-81.33954500039022, 34.19819699992866], [-81.33925800033504, 34.19798400007915], [-81.33907099983897, 34.19780800027884], [-81.33896100023412, 34.19758700030484], [-81.33869799957007, 34.19721399991238], [-81.33832400037457, 34.197086999685055], [-81.33811400031229, 34.1969790001544], [-81.33788300033362, 34.196824000097884], [-81.33769699966244, 34.19662400017915], [-81.33753400035414, 34.196269000195244], [-81.33745900001108, 34.195994999957996], [-81.33731800044409, 34.195621999953076], [-81.33723300005526, 34.195278999994315], [-81.33666999981557, 34.19498199997085], [-81.33616100000253, 34.194916000153796], [-81.33588999984089, 34.19496099989956], [-81.33552900016588, 34.19511599966564], [-81.33506399983546, 34.19502199987986], [-81.33457699976373, 34.195019999661916], [-81.33398900030801, 34.19521100019631], [-81.33372300016921, 34.19519999976494], [-81.333468999726, 34.19497999975196], [-81.33306500039328, 34.19430599982755], [-81.33302000018742, 34.19390000021217], [-81.33308799995949, 34.19367000001662], [-81.33225899958101, 34.193326000162216], [-81.33199400016545, 34.19318699994176], [-81.33173999972223, 34.19296500035469], [-81.33143000010085, 34.19296400022136], [-81.331208000343, 34.19302699968232], [-81.33088600012772, 34.193201000284375], [-81.33052000042983, 34.19330099990424], [-81.33008799971138, 34.193355000184624], [-81.32967900035578, 34.193252000239085], [-81.32943499995831, 34.19290900029961], [-81.32943099976035, 34.19287799985507], [-81.32940300017125, 34.19283600014543], [-81.32922800026908, 34.192501000368125], [-81.32916100032193, 34.19237200019212], [-81.32907799958292, 34.19214600011666], [-81.32904300032115, 34.19202499981087], [-81.3290330002754, 34.19174900034895], [-81.32906699971227, 34.191642000074985], [-81.32917899986528, 34.191299000274704], [-81.3293360002241, 34.190903999807645], [-81.32940499982107, 34.19041600016362], [-81.32924699963733, 34.19015500016655], [-81.3290330002754, 34.18970099981581], [-81.32900700033613, 34.18964499982259], [-81.3288919998101, 34.1897019999879], [-81.32873600017447, 34.18977799965296], [-81.32852799976202, 34.189878000359435], [-81.32833000029362, 34.189955000034985], [-81.32815799986618, 34.190009999654], [-81.32797899976603, 34.19002100001932], [-81.3277939998181, 34.18999299976208], [-81.32768199966512, 34.189955000034985], [-81.3275689996872, 34.189878000359435], [-81.3274630002803, 34.18983400030096], [-81.32721800005793, 34.18976300005689], [-81.32709300038444, 34.189691000324], [-81.32705999987417, 34.189625000081364], [-81.32703300010999, 34.18946599992654], [-81.32697399966044, 34.18938899980454], [-81.32689400019282, 34.189349999629115], [-81.32676899962104, 34.18931699975238], [-81.32660299993968, 34.189328000208086], [-81.32646400002251, 34.18936100008052], [-81.3262659996558, 34.18940000025091], [-81.32612699973862, 34.1894160000869], [-81.32593500011798, 34.189410999952706], [-81.32573599992637, 34.189410999952706], [-81.32556400039724, 34.18945500023185], [-81.32539199996977, 34.189503999873956], [-81.32502899974662, 34.189570000211276], [-81.32459899957631, 34.189570000211276], [-81.32442700004718, 34.18956500008621], [-81.324280999559, 34.18958700018846], [-81.32414900021284, 34.18965299971776], [-81.32387100037847, 34.18965299971776], [-81.32366600033907, 34.18964200004746], [-81.3231959999858, 34.18958200006441], [-81.32279900032576, 34.1894770003628], [-81.32254099968458, 34.18942799996194], [-81.3224019997674, 34.18935599994306], [-81.3223230001247, 34.18925200013753], [-81.32225600017755, 34.1890919998433], [-81.32224299975876, 34.188976999955216], [-81.32221699981947, 34.18886199991034], [-81.3221769996365, 34.18879000015132], [-81.32210399984157, 34.188767999841176], [-81.32200500010737, 34.188779000368484], [-81.32192599956633, 34.1888180000649], [-81.32184600009872, 34.18890000012988], [-81.3217740001287, 34.18893300016978], [-81.32168799991497, 34.18894399993254], [-81.32162099996782, 34.18890000012988], [-81.32158199960976, 34.18884499978702], [-81.32151600038584, 34.18882300023425], [-81.32138999998914, 34.18880700028572], [-81.3213170001942, 34.188767999841176], [-81.32125100007197, 34.18869700018587], [-81.32119800036851, 34.188565000322555], [-81.32115800018555, 34.188410999849346], [-81.32112499967526, 34.18824000033588], [-81.32102599994106, 34.187943000044015], [-81.32095999981883, 34.187833999754645], [-81.3208600002597, 34.18773499979245], [-81.32084699984091, 34.187669000248455], [-81.32088700002389, 34.18758100003305], [-81.32093300005464, 34.187497999973786], [-81.32095999981883, 34.187416000031945], [-81.32093999972734, 34.18735499975166], [-81.32089299987167, 34.18729999988746], [-81.3207680001982, 34.18722300001738], [-81.32047699994507, 34.187113000081], [-81.32039699957913, 34.18705800005907], [-81.32037099963985, 34.18700300000122], [-81.32037099963985, 34.18678899990781], [-81.32034399987567, 34.18666800009047], [-81.32029799984493, 34.1865800003169], [-81.3202119996312, 34.186491999708466], [-81.32013299998849, 34.18644800011292], [-81.31999999991909, 34.18641499984388], [-81.31987500024562, 34.186360000109886], [-81.31979499987968, 34.186288999913835], [-81.31971600023695, 34.18619000036751], [-81.31968299972668, 34.186013999731315], [-81.31964300044203, 34.185952999923295], [-81.31959599968806, 34.18592000020373], [-81.31951600022042, 34.18589300028844], [-81.319311000181, 34.18583299986776], [-81.31917899993651, 34.18575499992588], [-81.31903300034666, 34.18564599978146], [-81.31893399971415, 34.185595999906695], [-81.31880800021577, 34.18555799968479], [-81.31868299964398, 34.185514000345194], [-81.31858999975755, 34.185491999923634], [-81.31851699996263, 34.18550799975788], [-81.31841800022842, 34.18553600001788], [-81.31823999995319, 34.18561299994173], [-81.3180080001496, 34.18576099975244], [-81.31780300011017, 34.18592600001857], [-81.3175510002151, 34.186141000286405], [-81.31747900024509, 34.18621199986391], [-81.31741999979555, 34.1862389996771], [-81.31733399958182, 34.18625100000414], [-81.31726499998486, 34.18624200031637], [-81.31713600011341, 34.186228000304695], [-81.3170230001355, 34.18624999979119], [-81.31685800027907, 34.18635499979448], [-81.31675199997386, 34.18643700002467], [-81.31663999982086, 34.1865470000995], [-81.31650699975148, 34.18674499972409], [-81.31645400004801, 34.186877000206394], [-81.31642100043607, 34.18704199977572], [-81.31638200007801, 34.18709200027952], [-81.31630199971207, 34.18712999981035], [-81.31615699994711, 34.18712999981035], [-81.31587900011274, 34.18704199977572], [-81.31575299971605, 34.18702600023244], [-81.3156139997989, 34.18703099976492], [-81.31555500024766, 34.187059000262444], [-81.31535000020824, 34.18721799975318], [-81.31523700023034, 34.18725700017138], [-81.3150720003739, 34.18725700017138], [-81.31497199991648, 34.18723500020443], [-81.31488599970275, 34.18718000026199], [-81.31468800023434, 34.18704199977572], [-81.31445600043077, 34.18690500001193], [-81.31433099985897, 34.18681099999109], [-81.314298000247, 34.186586000084844], [-81.31427800015551, 34.186376999990955], [-81.31422399972884, 34.18624599968231], [-81.31419199994178, 34.18626099990384], [-81.31401700003961, 34.185894999979666], [-81.31071999969058, 34.179309999707144], [-81.30997700042413, 34.177826999912966], [-81.3096939996686, 34.17726100005537], [-81.30811199997794, 34.17409400029303], [-81.30717100034478, 34.17221199993891], [-81.30699499971936, 34.171860000181], [-81.30339000029707, 34.16464600031411], [-81.30237699979558, 34.16261799987925], [-81.3022660003658, 34.16239499963234], [-81.30235599987918, 34.16231899983027], [-81.30412800043895, 34.16081899971299], [-81.31040900024426, 34.15550099997922], [-81.31163799975752, 34.15446499976247], [-81.31259099998455, 34.15219099968457], [-81.31376199977147, 34.14940900020328], [-81.31410699955299, 34.14855700000789], [-81.31459600017284, 34.147296000276484], [-81.3150370002138, 34.146140999734435], [-81.31360299976282, 34.144946999878144], [-81.31173400001698, 34.14339600016211], [-81.31171899994837, 34.14338399968946], [-81.31148600031986, 34.14319000011419], [-81.3119039998963, 34.14117999971406], [-81.31099300040037, 34.1401140003195], [-81.30884599992186, 34.1375840002655], [-81.30882400018055, 34.137556999758814], [-81.30862499998894, 34.13734400000328], [-81.30861300029335, 34.13732900001071], [-81.30852100023185, 34.13722299993788], [-81.30621700029282, 34.1345280002893], [-81.3060890002463, 34.13437400011424], [-81.30282000038468, 34.13055000011424], [-81.30244000044308, 34.13010500011421], [-81.30154499994235, 34.12906600032478], [-81.29985799977139, 34.12708600000792], [-81.29801099976687, 34.12491699976741], [-81.29662200042004, 34.12336999990563]]]}}]}